$$SOE
2461302.500000000, A.D. 2026-Sep-19 00:00:00.0000, 3.373018216060184E+08, -1.346853917024865E+07, -4.609670515472327E+06,
2461309.500000000, A.D. 2026-Sep-26 00:00:00.0000, 3.364000093159206E+08, -1.610094973657933E+06, -5.663575779780264E+06,
2461316.500000000, A.D. 2026-Oct-03 00:00:00.0000, 3.350694639489954E+08, 1.025034908878188E+07, -6.710260441517709E+06,
2461323.500000000, A.D. 2026-Oct-10 00:00:00.0000, 3.333074415354148E+08, 2.209753866542504E+07, -7.748301458448194E+06,
2461330.500000000, A.D. 2026-Oct-17 00:00:00.0000, 3.311117096942411E+08, 3.391591658180653E+07, -8.776257337086856E+06,
2461337.500000000, A.D. 2026-Oct-24 00:00:00.0000, 3.284805729287689E+08, 4.568963502938137E+07, -9.792669679469865E+06,
2461344.500000000, A.D. 2026-Oct-31 00:00:00.0000, 3.254128983549649E+08, 5.740256944819114E+07, -1.079606492403844E+07,
2461351.500000000, A.D. 2026-Nov-07 00:00:00.0000, 3.219081421028859E+08, 6.903833429242951E+07, -1.178495631330051E+07,
2461358.500000000, A.D. 2026-Nov-14 00:00:00.0000, 3.179663764730675E+08, 8.058030166976942E+07, -1.275784604173754E+07,
2461365.500000000, A.D. 2026-Nov-21 00:00:00.0000, 3.135883158971404E+08, 9.201162363792881E+07, -1.371322736827878E+07,
2461372.500000000, A.D. 2026-Nov-28 00:00:00.0000, 3.087753405575939E+08, 1.033152552444593E+08, -1.464958685356532E+07,
2461379.500000000, A.D. 2026-Dec-05 00:00:00.0000, 3.035295211132429E+08, 1.144739777314261E+08, -1.556540711357142E+07,
2461386.500000000, A.D. 2026-Dec-12 00:00:00.0000, 2.978536444944952E+08, 1.254704250887856E+08, -1.645916985410801E+07,
2461393.500000000, A.D. 2026-Dec-19 00:00:00.0000, 2.917512386688403E+08, 1.362871140281221E+08, -1.732935901415332E+07,
2461400.500000000, A.D. 2026-Dec-26 00:00:00.0000, 2.852265960102880E+08, 1.469064765583464E+08, -1.817446407597177E+07,
2461407.500000000, A.D. 2027-Jan-02 00:00:00.0000, 2.782847953102781E+08, 1.573108950033610E+08, -1.899298358128502E+07,
2461414.500000000, A.D. 2027-Jan-09 00:00:00.0000, 2.709317222945466E+08, 1.674827394919758E+08, -1.978342885891154E+07,
2461421.500000000, A.D. 2027-Jan-16 00:00:00.0000, 2.631740884160383E+08, 1.774044079159153E+08, -2.054432796047874E+07,
2461428.500000000, A.D. 2027-Jan-23 00:00:00.0000, 2.550194476939073E+08, 1.870583682781215E+08, -2.127422980330647E+07,
2461435.500000000, A.D. 2027-Jan-30 00:00:00.0000, 2.464762115031015E+08, 1.964272033184170E+08, -2.197170853077460E+07,
2461442.500000000, A.D. 2027-Feb-06 00:00:00.0000, 2.375536614531942E+08, 2.054936576602057E+08, -2.263536808836531E+07,
2461449.500000000, A.D. 2027-Feb-13 00:00:00.0000, 2.282619596038225E+08, 2.142406885615127E+08, -2.326384685726507E+07,
2461456.500000000, A.D. 2027-Feb-20 00:00:00.0000, 2.186121533506717E+08, 2.226515193123553E+08, -2.385582217170317E+07,
2461463.500000000, A.D. 2027-Feb-27 00:00:00.0000, 2.086161760960888E+08, 2.307096918782789E+08, -2.441001508792938E+07,
2461470.500000000, A.D. 2027-Mar-06 00:00:00.0000, 1.982868464588636E+08, 2.383991204775330E+08, -2.492519550085837E+07,
2461477.500000000, A.D. 2027-Mar-13 00:00:00.0000, 1.876378641599661E+08, 2.457041478620334E+08, -2.540018726497585E+07,
2461484.500000000, A.D. 2027-Mar-20 00:00:00.0000, 1.766838012109356E+08, 2.526096031576609E+08, -2.583387325156152E+07,
2461491.500000000, A.D. 2027-Mar-27 00:00:00.0000, 1.654400883913100E+08, 2.591008603711327E+08, -2.622520037080359E+07,
2461498.500000000, A.D. 2027-Apr-03 00:00:00.0000, 1.539229970330811E+08, 2.651638971372913E+08, -2.657318454407300E+07,
2461505.500000000, A.D. 2027-Apr-10 00:00:00.0000, 1.421496160236116E+08, 2.707853533195205E+08, -2.687691559055600E+07,
2461512.500000000, A.D. 2027-Apr-17 00:00:00.0000, 1.301378239394344E+08, 2.759525890102634E+08, -2.713556198997261E+07,
2461519.500000000, A.D. 2027-Apr-24 00:00:00.0000, 1.179062563253279E+08, 2.806537414068767E+08, -2.734837549078140E+07,
2461526.500000000, A.D. 2027-May-01 00:00:00.0000, 1.054742684026936E+08, 2.848777801104391E+08, -2.751469554536170E+07,
2461533.500000000, A.D. 2027-May-08 00:00:00.0000, 9.286189355445734E+07, 2.886145611059577E+08, -2.763395349617863E+07,
2461540.500000000, A.D. 2027-May-15 00:00:00.0000, 8.008979619093664E+07, 2.918548798752851E+08, -2.770567625541818E+07,
2461547.500000000, A.D. 2027-May-22 00:00:00.0000, 6.717921758193241E+07, 2.945905205355249E+08, -2.772948950079328E+07,
2461554.500000000, A.D. 2027-May-29 00:00:00.0000, 5.415191821251504E+07, 2.968142990487784E+08, -2.770512077315010E+07,
2461561.500000000, A.D. 2027-Jun-05 00:00:00.0000, 4.103011782722490E+07, 2.985201031725718E+08, -2.763240226642874E+07,
2461568.500000000, A.D. 2027-Jun-12 00:00:00.0000, 2.783643149001268E+07, 2.997029291265431E+08, -2.751127305566126E+07,
2461575.500000000, A.D. 2027-Jun-19 00:00:00.0000, 1.459380171259353E+07, 3.003589136187526E+08, -2.734178077709386E+07,
2461582.500000000, A.D. 2027-Jun-26 00:00:00.0000, 1.325427368039738E+06, 3.004853605944247E+08, -2.712408278126268E+07,
2461589.500000000, A.D. 2027-Jul-03 00:00:00.0000, -1.194530999062120E+07, 3.000807623888172E+08, -2.685844675019184E+07,
2461596.500000000, A.D. 2027-Jul-10 00:00:00.0000, -2.519492183698108E+07, 2.991448150193153E+08, -2.654525076670736E+07,
2461603.500000000, A.D. 2027-Jul-17 00:00:00.0000, -3.839988979502584E+07, 2.976784273581762E+08, -2.618498283224347E+07,
2461610.500000000, A.D. 2027-Jul-24 00:00:00.0000, -5.153674342586914E+07, 2.956837239576168E+08, -2.577823984569892E+07,
2461617.500000000, A.D. 2027-Jul-31 00:00:00.0000, -6.458213766014055E+07, 2.931640416592100E+08, -2.532572605895784E+07,
2461624.500000000, A.D. 2027-Aug-07 00:00:00.0000, -7.751292947638568E+07, 2.901239211172360E+08, -2.482825090259232E+07,
2461631.500000000, A.D. 2027-Aug-14 00:00:00.0000, -9.030625552524109E+07, 2.865690930536042E+08, -2.428672601023394E+07,
2461638.500000000, A.D. 2027-Aug-21 00:00:00.0000, -1.029396094739445E+08, 2.825064560161198E+08, -2.370216179781426E+07,
2461645.500000000, A.D. 2027-Aug-28 00:00:00.0000, -1.153909150598321E+08, 2.779440470421612E+08, -2.307566384273893E+07,
2461652.500000000, A.D. 2027-Sep-04 00:00:00.0000, -1.276385954790833E+08, 2.728910080096174E+08, -2.240842878828122E+07,
2461659.500000000, A.D. 2027-Sep-11 00:00:00.0000, -1.396616399766793E+08, 2.673575473387932E+08, -2.170173973832282E+07,
2461666.500000000, A.D. 2027-Sep-18 00:00:00.0000, -1.514396670259165E+08, 2.613548967635003E+08, -2.095696124796566E+07,
2461673.500000000, A.D. 2027-Sep-25 00:00:00.0000, -1.629529834461057E+08, 2.548952635127487E+08, -2.017553398169473E+07,
2461680.500000000, A.D. 2027-Oct-02 00:00:00.0000, -1.741826390176070E+08, 2.479917783929866E+08, -1.935896909154683E+07,
2461687.500000000, A.D. 2027-Oct-09 00:00:00.0000, -1.851104762654963E+08, 2.406584402622366E+08, -1.850884236775230E+07,
2461694.500000000, A.D. 2027-Oct-16 00:00:00.0000, -1.957191751044527E+08, 2.329100573611572E+08, -1.762678822331530E+07,
2461701.500000000, A.D. 2027-Oct-23 00:00:00.0000, -2.059922919040234E+08, 2.247621860299982E+08, -1.671449358820686E+07,
2461708.500000000, A.D. 2027-Oct-30 00:00:00.0000, -2.159142924825564E+08, 2.162310679620424E+08, -1.577369174840342E+07,
2461715.500000000, A.D. 2027-Nov-06 00:00:00.0000, -2.254705801421191E+08, 2.073335676609443E+08, -1.480615598089489E+07,
2461722.500000000, A.D. 2027-Nov-13 00:00:00.0000, -2.346475207413029E+08, 1.980871085620819E+08, -1.381369302161644E+07,
2461729.500000000, A.D. 2027-Nov-20 00:00:00.0000, -2.434324619594601E+08, 1.885096061494870E+08, -1.279813685576484E+07,
2461736.500000000, A.D. 2027-Nov-27 00:00:00.0000, -2.518137452421035E+08, 1.786194015109512E+08, -1.176134277574896E+07,
2461743.500000000, A.D. 2027-Dec-04 00:00:00.0000, -2.597807126248657E+08, 1.684351967036563E+08, -1.070518148628537E+07,
2461750.500000000, A.D. 2027-Dec-11 00:00:00.0000, -2.673237091983029E+08, 1.579759914027327E+08, -9.631533321710244E+06,
2461757.500000000, A.D. 2027-Dec-18 00:00:00.0000, -2.744340811792861E+08, 1.472610208873715E+08, -8.542282659176655E+06,
2461764.500000000, A.D. 2027-Dec-25 00:00:00.0000, -2.811041697097899E+08, 1.363096957131921E+08, -7.439312568265311E+06,
2461771.500000000, A.D. 2028-Jan-01 00:00:00.0000, -2.873273006410136E+08, 1.251415433955460E+08, -6.324499722209312E+06,
$$EOE